0 SL-6 R/B(2)
1 18949U 88017D   13281.01224733 -.00000356  00000-0 -31255-2 0  6623
2 18949 063.4289 091.9214 6970345 280.7970 020.0694 02.10112868175731
0 SL-6 R/B(2)
1 18949U 88017D   13290.11452315 -.00000238  00000-0  98788-2 0  6636
2 18949 063.4371 090.7195 6972328 280.7721 064.9932 02.10112577175925
0 SL-6 R/B(2)
1 18949U 88017D   13290.52263076  .00000000  00000-0  10000-3 0  6655
2 18949 063.4213 090.6618 6970448 280.7709 013.7000 02.10115997175934
0 SL-6 R/B(2)
1 18949U 88017D   13292.43014345 -.00000264  00000-0  23709-2 0  6663
2 18949 063.4388 090.4136 6972765 280.7654 016.5668 02.10112206175978
